%YAML 1.1
%TAG !u! tag:unity3d.com,2011:
--- !u!114 &11400000
MonoBehaviour:
  m_ObjectHideFlags: 0
  m_CorrespondingSourceObject: {fileID: 0}
  m_PrefabInstance: {fileID: 0}
  m_PrefabAsset: {fileID: 0}
  m_GameObject: {fileID: 0}
  m_Enabled: 1
  m_EditorHideFlags: 0
  m_Script: {fileID: 11500000, guid: 3c3c350472192c149822725a54cc75ed, type: 3}
  m_Name: Mercury
  m_EditorClassIdentifier: 
  mass: 3.285e+23
  diameter: 4879000.5
  orbit:
    semimajorAxis: 57910000000
    eccentricity: 0.20563593
    inclination: 0.1222599479
    lonAscNode: 0.8435309955
    argPeriapsis: 0.5083625809
    trueAnomaly: 3.080381545
    meanAnomaly: 0
    anomaly: 0
    semiminorAxis: 0
    meanMotion: 0
    semiLatusRectum: 0
    timeToPeriapsis: 0
    period: 0
  isStar: 0
  hasSpacecraft: 0
  material: {fileID: 2100000, guid: 891fd2c75183bdc419406ff17e1c0af1, type: 2}
  bodiesOnOrbit: []
  type: 1
